NORAD_CAT_ID,OBJECT_NAME,OBJECT_TYPE,EPOCH,MEAN_MOTION,ECCENTRICITY,INCLINATION,RA_OF_ASC_NODE,ARG_OF_PERICENTER,MEAN_ANOMALY,BSTAR,MEAN_MOTION_DOT,MEAN_MOTION_DDOT,TLE_LINE0,TLE_LINE1,TLE_LINE2,SEMIMAJOR_AXIS,PERIOD,APOGEE,PERIGEE,DECAYED
56491.0,STARLINK-5842,PAYLOAD,2023-06-22 00:30:24,15.69924006,0.0003097,69.999,126.3725,259.5607,100.524,5.8039e-06,4.85e-06,0.0,0 STARLINK-5842,1 56491U 23064AV  23173.02112210  .00000485  00000-0  58039-5 0  9992,2 56491  69.9990 126.3725 0003097 259.5607 100.5240 15.69924006  7010,6737.251,91.724,361.203,357.03,0.0
56491.0,STARLINK-5842,PAYLOAD,2023-06-22 14:16:10,15.69932688,0.0003639,69.9975,124.7581,266.7977,93.2802,1.4293e-05,1.507e-05,0.0,0 STARLINK-5842,1 56491U 23064AV  23173.59456510  .00001507  00000-0  14293-4 0  9997,2 56491  69.9975 124.7581 0003639 266.7977  93.2802 15.69932688  7104,6737.227,91.724,361.543,356.64,0.0
56491.0,STARLINK-5842,PAYLOAD,2023-06-23 05:33:42,15.69924824,0.000342,69.9986,122.9685,263.1448,96.9359,1.2786e-05,1.325e-05,0.0,0 STARLINK-5842,1 56491U 23064AV  23174.23173779  .00001325  00000-0  12786-4 0  9995,2 56491  69.9986 122.9685 0003420 263.1448  96.9359 15.69924824  7204,6737.249,91.724,361.418,356.81,0.0
56491.0,STARLINK-5842,PAYLOAD,2023-06-24 06:01:44,15.69927983,0.0003451,69.9984,120.0989,262.6646,97.4158,1.9235e-05,2.101e-05,0.0,0 STARLINK-5842,1 56491U 23064AV  23175.25120547  .00002101  00000-0  19235-4 0  9992,2 56491  69.9984 120.0989 0003451 262.6646  97.4158 15.69927983  7365,6737.24,91.724,361.43,356.78,0.0
56491.0,STARLINK-5842,PAYLOAD,2023-06-24 22:51:00,15.69921034,0.0003486,69.9988,118.1301,263.3549,96.725,1.8392e-06,8e-08,0.0,0 STARLINK-5842,1 56491U 23064AV  23175.95209173  .00000008  00000-0  18392-5 0  9990,2 56491  69.9988 118.1301 0003486 263.3549  96.7250 15.69921034  7471,6737.26,91.724,361.474,356.776,0.0
56491.0,STARLINK-5842,PAYLOAD,2023-06-25 04:58:00,15.69930727,0.0003179,69.9986,117.4112,260.9901,99.0935,1.3235e-05,1.379e-05,0.0,0 STARLINK-5842,1 56491U 23064AV  23176.20695362  .00001379  00000-0  13235-4 0  9990,2 56491  69.9986 117.4112 0003179 260.9901  99.0935 15.69930727  7515,6737.232,91.724,361.239,356.955,0.0
56491.0,STARLINK-5842,PAYLOAD,2023-06-25 23:19:02,15.69924167,0.000325,69.9982,115.262,254.4092,105.6745,2.3669e-07,-1.84e-06,0.0,0 STARLINK-5842,1 56491U 23064AV  23176.97155868 -.00000184  00000-0  23669-6 0  9994,2 56491  69.9982 115.2620 0003250 254.4092 105.6745 15.69924167  7637,6737.251,91.724,361.306,356.926,0.0
56491.0,STARLINK-5842,PAYLOAD,2023-06-27 04:22:19,15.69931102,0.0003514,69.9978,111.8584,267.4124,92.667,6.1215e-06,5.23e-06,0.0,0 STARLINK-5842,1 56491U 23064AV  23178.18217309  .00000523  00000-0  61215-5 0  9992,2 56491  69.9978 111.8584 0003514 267.4124  92.6670 15.69931102  7826,6737.231,91.724,361.464,356.729,0.0
56491.0,STARLINK-5842,PAYLOAD,2023-06-28 03:18:37,15.6992099,0.0003484,69.9975,109.1713,265.694,94.3857,1.1513e-05,1.172e-05,0.0,0 STARLINK-5842,1 56491U 23064AV  23179.13792927  .00001172  00000-0  11513-4 0  9998,2 56491  69.9975 109.1713 0003484 265.6940  94.3857 15.69920990  7974,6737.26,91.724,361.472,356.778,0.0
56491.0,STARLINK-5842,PAYLOAD,2023-06-29 06:50:10,15.69912326,0.000253,69.9988,105.9498,275.7577,84.3331,-1.2939e-05,-1.767e-05,0.0,0 STARLINK-5842,1 56491U 23064AV  23180.28484297 -.00001767  00000-0 -12939-4 0  9999,2 56491  69.9988 105.9498 0002530 275.7577  84.3331 15.69912326  8152,6737.285,91.725,360.854,357.445,0.0
56491.0,STARLINK-5842,PAYLOAD,2023-06-30 11:53:27,15.69917222,0.0003504,69.9966,102.5463,263.3302,96.7495,2.4457e-06,8.1e-07,0.0,0 STARLINK-5842,1 56491U 23064AV  23181.49545143  .00000081  00000-0  24457-5 0  9996,2 56491  69.9966 102.5463 0003504 263.3302  96.7495 15.69917222  8343,6737.271,91.725,361.497,356.775,0.0
56491.0,STARLINK-5842,PAYLOAD,2023-07-01 18:28:28,15.69931908,0.0003629,69.9976,98.9622,267.4747,92.6033,1.2889e-05,1.338e-05,0.0,0 STARLINK-5842,1 56491U 23064AV  23182.76977783  .00001338  00000-0  12889-4 0  9997,2 56491  69.9976  98.9622 0003629 267.4747  92.6033 15.69931908  8547,6737.229,91.724,361.539,356.649,0.0
56491.0,STARLINK-5842,PAYLOAD,2023-07-02 02:07:14,15.69924738,0.0003277,69.9973,98.0658,264.178,95.9042,1.1727e-05,1.198e-05,0.0,0 STARLINK-5842,1 56491U 23064AV  23183.08836511  .00001198  00000-0  11727-4 0  9990,2 56491  69.9973  98.0658 0003277 264.1780  95.9042 15.69924738  8598,6737.249,91.724,361.322,356.907,0.0
56491.0,STARLINK-5842,PAYLOAD,2023-07-03 02:35:16,15.69920608,0.0003128,69.9978,95.2,265.1418,94.9421,2.2361e-05,2.476e-05,0.0,0 STARLINK-5842,1 56491U 23064AV  23184.10783451  .00002476  00000-0  22361-4 0  9994,2 56491  69.9978  95.2000 0003128 265.1418  94.9421 15.69920608  8757,6737.261,91.724,361.234,357.019,0.0
56491.0,STARLINK-5842,PAYLOAD,2023-07-04 03:03:18,15.69934816,0.0003499,69.997,92.3328,265.2061,94.8735,-4.2526e-06,-7.24e-06,0.0,0 STARLINK-5842,1 56491U 23064AV  23185.12729703 -.00000724  00000-0 -42526-5 0  9999,2 56491  69.9970  92.3328 0003499 265.2061  94.8735 15.69934816  8917,6737.22,91.724,361.443,356.728,0.0
56491.0,STARLINK-5842,PAYLOAD,2023-07-04 21:24:20,15.69925426,0.0003564,69.9978,90.1833,264.6902,95.3887,3.3712e-06,1.92e-06,0.0,0 STARLINK-5842,1 56491U 23064AV  23185.89190233  .00000192  00000-0  33712-5 0  9997,2 56491  69.9978  90.1833 0003564 264.6902  95.3887 15.69925426  9037,6737.247,91.724,361.514,356.711,0.0
56491.0,STARLINK-5842,PAYLOAD,2023-07-05 05:03:07,15.69912465,0.0003137,69.9972,89.2881,270.7383,89.3453,-1.1685e-05,-1.617e-05,0.0,0 STARLINK-5842,1 56491U 23064AV  23186.21049810 -.00001617  00000-0 -11685-4 0  9997,2 56491  69.9972  89.2881 0003137 270.7383  89.3453 15.69912465  9086,6737.284,91.725,361.263,357.036,0.0
56491.0,STARLINK-5842,PAYLOAD,2023-07-05 11:10:06,15.69917477,0.0003691,69.996,88.5708,263.5914,96.4861,3.3299e-06,1.87e-06,0.0,0 STARLINK-5842,1 56491U 23064AV  23186.46535773  .00000187  00000-0  33299-5 0  9997,2 56491  69.9960  88.5708 0003691 263.5914  96.4861 15.69917477  9123,6737.27,91.725,361.622,356.648,0.0
56491.0,STARLINK-5842,PAYLOAD,2023-07-06 02:27:37,15.69930418,0.0003774,69.9965,86.7792,263.6436,96.433,9.9171e-06,9.8e-06,0.0,0 STARLINK-5842,1 56491U 23064AV  23187.10251622  .00000980  00000-0  99171-5 0  9999,2 56491  69.9965  86.7792 0003774 263.6436  96.4330 15.69930418  9225,6737.233,91.724,361.641,356.555,0.0
56491.0,STARLINK-5842,PAYLOAD,2023-07-07 02:55:39,15.69928909,0.0003295,69.9971,83.9136,257.5641,102.5186,7.4757e-06,6.86e-06,0.0,0 STARLINK-5842,1 56491U 23064AV  23188.12198526  .00000686  00000-0  74757-5 0  9991,2 56491  69.9971  83.9136 0003295 257.5641 102.5186 15.69928909  9388,6737.237,91.724,361.322,356.882,0.0
56491.0,STARLINK-5842,PAYLOAD,2023-07-07 18:13:11,15.69923342,0.0003687,69.9973,82.1216,266.167,93.9104,1.4093e-06,-4.4e-07,0.0,0 STARLINK-5842,1 56491U 23064AV  23188.75915786 -.00000044  00000-0  14093-5 0  9991,2 56491  69.9973  82.1216 0003687 266.1670  93.9104 15.69923342  9483,6737.253,91.724,361.602,356.634,0.0
56491.0,STARLINK-5842,PAYLOAD,2023-07-08 03:23:41,15.69929592,0.0003435,69.998,81.0474,264.086,95.9944,1.4644e-05,1.549e-05,0.0,0 STARLINK-5842,1 56491U 23064AV  23189.14145127  .00001549  00000-0  14644-4 0  9990,2 56491  69.9980  81.0474 0003435 264.0860  95.9944 15.69929592  9548,6737.235,91.724,361.415,356.786,0.0
56491.0,STARLINK-5842,PAYLOAD,2023-07-08 20:12:58,15.69919535,0.0003428,69.9988,79.0763,267.3085,92.7718,-3.7306e-06,-6.61e-06,0.0,0 STARLINK-5842,1 56491U 23064AV  23189.84234655 -.00000661  00000-0 -37306-5 0  9999,2 56491  69.9988  79.0763 0003428 267.3085  92.7718 15.69919535  9653,6737.264,91.724,361.439,356.82,0.0
56491.0,STARLINK-5842,PAYLOAD,2023-07-09 19:09:14,15.69928721,0.0003467,69.9981,76.389,263.3294,96.7507,7.1205e-06,6.44e-06,0.0,0 STARLINK-5842,1 56491U 23064AV  23190.79809027  .00000644  00000-0  71205-5 0  9991,2 56491  69.9981  76.3890 0003467 263.3294  96.7507 15.69928721  9802,6737.238,91.724,361.439,356.767,0.0
56491.0,STARLINK-5842,PAYLOAD,2023-07-10 16:33:46,15.69921436,0.0003196,69.9978,73.8807,259.4666,100.617,1.4143e-05,1.488e-05,0.0,0 STARLINK-5842,1 56491U 23064AV  23191.69012677  .00001488  00000-0  14143-4 0  9992,2 56491  69.9978  73.8807 0003196 259.4666 100.6170 15.69921436  9948,6737.259,91.724,361.277,356.971,0.0
56491.0,STARLINK-5842,PAYLOAD,2023-07-11 01:44:17,15.69928051,0.0003755,69.9974,72.8056,264.8759,95.2008,2.0315e-05,2.231e-05,0.0,0 STARLINK-5842,1 56491U 23064AV  23192.07242141  .00002231  00000-0  20315-4 0  9991,2 56491  69.9974  72.8056 0003755 264.8759  95.2008 15.69928051 10001,6737.24,91.724,361.635,356.575,0.0
56491.0,STARLINK-5842,PAYLOAD,2023-07-12 19:01:36,15.69923274,0.0003281,69.9986,67.9698,266.5991,93.483,1.8852e-06,1.4e-07,0.0,0 STARLINK-5842,1 56491U 23064AV  23193.79278064  .00000014  00000-0  18852-5 0  9995,2 56491  69.9986  67.9698 0003281 266.5991  93.4830 15.69923274 10276,6737.254,91.724,361.329,356.908,0.0
56491.0,STARLINK-5842,PAYLOAD,2023-07-13 17:57:52,15.69928039,0.000333,69.9989,65.2813,265.5281,94.5534,9.0659e-06,8.78e-06,0.0,0 STARLINK-5842,1 56491U 23064AV  23194.74852583  .00000878  00000-0  90659-5 0  9998,2 56491  69.9989  65.2813 0003330 265.5281  94.5534 15.69928039 10429,6737.24,91.724,361.348,356.861,0.0
56491.0,STARLINK-5842,PAYLOAD,2023-07-14 16:54:10,15.69921635,0.0003875,69.996,62.5941,267.2044,92.8708,-7.0687e-06,-1.063e-05,0.0,0 STARLINK-5842,1 56491U 23064AV  23195.70428434 -.00001063  00000-0 -70687-5 0  9997,2 56491  69.9960  62.5941 0003875 267.2044  92.8708 15.69921635 10575,6737.258,91.724,361.734,356.513,0.0
56491.0,STARLINK-5842,PAYLOAD,2023-07-15 17:22:12,15.69928143,0.0003392,69.9971,59.7286,256.7596,103.3221,-1.0365e-05,-1.459e-05,0.0,0 STARLINK-5842,1 56491U 23064AV  23196.72375099 -.00001459  00000-0 -10365-4 0  9993,2 56491  69.9971  59.7286 0003392 256.7596 103.3221 15.69928143 10733,6737.24,91.724,361.39,356.819,0.0
